[{"OBJECT_NAME":"DONGPO 08","OBJECT_ID":"2022-167E","EPOCH":"2026-03-09T22:57:52.742880","MEAN_MOTION":15.31542505,"ECCENTRICITY":0.00092155,"INCLINATION":97.6764,"RA_OF_ASC_NODE":233.3854,"ARG_OF_PERICENTER":153.9158,"MEAN_ANOMALY":206.2548,"EPHEMERIS_TYPE":0,"CLASSIFICATION_TYPE":"U","NORAD_CAT_ID":54686,"ELEMENT_SET_NO":999,"REV_AT_EPOCH":18012,"BSTAR":0.0004734784,"MEAN_MOTION_DOT":0.0001437,"MEAN_MOTION_DDOT":0},{"OBJECT_NAME":"STARLINK-34254","OBJECT_ID":"2025-111P","EPOCH":"2026-03-09T01:54:09.772992","MEAN_MOTION":15.27589243,"ECCENTRICITY":2.767e-5,"INCLINATION":43.001,"RA_OF_ASC_NODE":81.0062,"ARG_OF_PERICENTER":242.1238,"MEAN_ANOMALY":117.9586,"EPHEMERIS_TYPE":0,"CLASSIFICATION_TYPE":"U","NORAD_CAT_ID":64136,"ELEMENT_SET_NO":999,"REV_AT_EPOCH":4537,"BSTAR":0.001200386,"MEAN_MOTION_DOT":0.00032927,"MEAN_MOTION_DDOT":0}]
